OBJECT_NAME,OBJECT_ID,EPOCH,MEAN_MOTION,ECCENTRICITY,INCLINATION,RA_OF_ASC_NODE,ARG_OF_PERICENTER,MEAN_ANOMALY,EPHEMERIS_TYPE,CLASSIFICATION_TYPE,NORAD_CAT_ID,ELEMENT_SET_NO,REV_AT_EPOCH,BSTAR,MEAN_MOTION_DOT,MEAN_MOTION_DDOT
KUZGTU 1 (RS47S),2023-091AV,2026-06-13T05:46:08.580576,15.29776891,.00123812,97.5073,228.6799,110.1541,250.1032,0,U,57217,999,16377,.43043541E-3,.12372E-3,0
SONATE-2,2024-043Q,2026-06-13T05:19:34.088448,15.58436323,.00068706,97.5519,314.3760,208.7860,151.3017,0,U,59112,999,12727,.52937208E-3,.40374E-3,0
MESAT1,2024-125G,2026-06-13T03:17:07.113696,15.62787708,.00091319,97.2293,21.5292,218.9038,141.1564,0,U,60209,999,10893,.6527569E-3,.59005E-3,0
OOV-CUBE (TUBSAT-30),2024-128F,2026-06-12T17:31:47.963136,15.02757002,.00451863,61.9949,241.1135,132.7412,227.7496,0,U,60240,999,10544,.17414297E-3,.2175E-4,0
COLIBRI-S (RS67S),2024-199M,2026-06-13T05:55:48.474912,15.47570975,.0006268,97.3004,38.0665,297.9274,62.1341,0,U,61746,999,13680,.42126549E-3,.21644E-3,0
HORS 3 (RS81S),2024-199U,2026-06-13T07:01:03.906912,15.54717972,.000377,97.2989,40.0569,302.4901,57.5989,0,U,61753,999,13695,.52666512E-3,.34955E-3,0
HORS 4 (RS82S),2024-199V,2026-06-13T06:21:04.764672,15.59337972,.00029632,97.2937,41.2048,284.7895,75.3034,0,U,61754,999,13703,.60394511E-3,.47673E-3,0
ARCTICSAT 1 (RS74S),2024-199AD,2026-06-13T02:49:45.609600,16.25959635,.00096568,97.2788,48.2183,221.8122,138.2434,0,U,61762,999,13747,.11680731E-2,.3579472E-1,.2405656E-5
SIT-2086,2024-199AF,2026-06-13T06:22:55.373952,15.52830496,.00043341,97.2946,40.5201,272.2605,87.8152,0,U,61764,999,13382,.59219759E-3,.3673E-3,0
HYPERVIEW 1G (RS66S),2024-199AP,2026-06-13T06:01:59.733984,15.74851223,.00028207,97.2884,43.7752,240.6111,119.4872,0,U,61772,999,13405,.91763481E-3,.136956E-2,0
ALTAIR (RS65S),2024-199AW,2026-06-13T06:30:01.260288,15.36960112,.00114725,97.3040,33.6483,327.0577,32.9952,0,U,61779,999,13651,.29639244E-3,.10658E-3,0
ASRTU-1 (AO-123),2024-199AY,2026-06-13T06:07:40.074816,15.35622337,.00126368,97.3011,32.9622,329.7335,30.3178,0,U,61781,999,13332,.22414533E-3,.7701E-4,0
SAMSAT-IONOSPHERE (RS75S),2024-199BB,2026-06-13T06:26:56.785920,15.57303354,.00059046,97.2958,40.0655,297.2767,62.7887,0,U,61784,999,13695,.64310909E-3,.47064E-3,0
RTU MIREA 1 (RS51S),2024-199BC,2026-06-13T05:42:09.067680,15.60679895,.00054421,97.2945,40.8453,289.6521,70.4149,0,U,61785,999,13385,.65775189E-3,.54719E-3,0
TEVEL2-4,2025-052D,2026-06-13T06:28:24.342816,15.34482014,.00047329,97.3917,60.6555,110.4316,249.7436,0,U,63213,999,6951,.56728292E-3,.18898E-3,0
TEVEL2-5,2025-052E,2026-06-12T23:07:43.457952,15.34298068,.00046641,97.3917,60.2979,112.6525,247.5211,0,U,63214,999,6946,.5770032E-3,.19112E-3,0
TEVEL2-6,2025-052F,2026-06-13T05:41:00.397824,15.34273668,.00045916,97.3921,60.5561,112.1174,248.0556,0,U,63215,999,6950,.56730807E-3,.18774E-3,0
TEVEL2-1,2025-052H,2026-06-13T04:46:53.257728,15.33742375,.00045305,97.3890,60.1475,121.4077,238.7609,0,U,63217,999,6948,.55363063E-3,.18012E-3,0
TEVEL2-3,2025-052J,2026-06-13T06:13:19.473024,15.33799841,.00045562,97.3894,60.2289,121.1878,238.9812,0,U,63218,999,6949,.57109959E-3,.18619E-3,0
TEVEL2-2,2025-052K,2026-06-13T06:21:19.183104,15.33751578,.00046336,97.3884,60.2162,121.5188,238.6507,0,U,63219,999,6949,.53430051E-3,.17385E-3,0
TEVEL2-9,2025-052AD,2026-06-13T05:41:31.677216,15.31784932,.0007453,97.3954,59.5715,141.5778,218.5996,0,U,63237,999,6942,.54230222E-3,.16597E-3,0
TEVEL2-7,2025-052AE,2026-06-13T05:05:15.634464,15.31491052,.0007517,97.3956,59.4641,142.1332,218.0439,0,U,63238,999,6941,.53401748E-3,.16192E-3,0
TEVEL2-8,2025-052AF,2026-06-12T16:44:22.677216,15.31459087,.00075315,97.3955,58.9279,144.4315,215.7430,0,U,63239,999,6933,.58193638E-3,.17638E-3,0
INNOSAT 16 (RS92S7),2025-155C,2026-06-13T06:18:43.819488,15.25417539,.00100856,97.4556,131.4032,189.1313,170.9743,0,U,64878,999,8007,.23972566E-3,.5992E-4,0
GEOSCAN 6 (RS92S6),2025-155D,2026-06-13T06:11:11.893920,15.30081926,.00078273,97.4547,132.7946,175.3612,184.7703,0,U,64879,999,8016,.35203982E-3,.10184E-3,0
GEOSCAN 1 (RS92S1),2025-155E,2026-06-13T06:16:54.869952,15.30671873,.00077846,97.4544,132.9429,174.9146,185.2175,0,U,64880,999,8017,.37883559E-3,.11169E-3,0
239ALFEROV (RS61S),2025-155F,2026-06-13T05:41:14.123328,15.32840022,.00074963,97.4544,133.4662,171.6262,188.5107,0,U,64881,999,8020,.44179281E-3,.13955E-3,0
GEOSCAN 2 (RS92S2),2025-155Q,2026-06-13T06:08:49.219872,15.30942474,.00076274,97.4543,133.0883,161.4633,198.6887,0,U,64890,999,8018,.3649654E-3,.10847E-3,0
GEOSCAN 5 (RS92S5),2025-155R,2026-06-13T05:26:36.615552,15.33157365,.0006195,97.4537,133.5920,174.9393,185.1913,0,U,64891,999,8021,.43404859E-3,.13842E-3,0
GEOSCAN 4 (RS92S4),2025-155S,2026-06-13T06:38:23.481888,15.33311064,.00062447,97.4540,133.6895,174.9106,185.2200,0,U,64892,999,8022,.44555127E-3,.14281E-3,0
