KUZGTU 1 (RS47S)        
1 57217U 23091AV  26164.24037709  .00012372  00000+0  43044-3 0  9990
2 57217  97.5073 228.6799 0012381 110.1541 250.1032 15.29776891163778
SONATE-2                
1 59112U 24043Q   26164.22192232  .00040374  00000+0  52937-3 0  9999
2 59112  97.5519 314.3760 0006870 208.7860 151.3017 15.58436323127279
MESAT1                  
1 60209U 24125G   26164.13688789  .00059005  00000+0  65276-3 0  9997
2 60209  97.2293  21.5292 0009131 218.9038 141.1564 15.62787708108931
OOV-CUBE (TUBSAT-30)    
1 60240U 24128F   26163.73041624  .00002175  00000+0  17414-3 0  9998
2 60240  61.9949 241.1135 0045186 132.7412 227.7496 15.02757002105443
COLIBRI-S (RS67S)       
1 61746U 24199M   26164.24708883  .00021644  00000+0  42127-3 0  9993
2 61746  97.3004  38.0665 0006268 297.9274  62.1341 15.47570975136804
HORS 3 (RS81S)          
1 61753U 24199U   26164.29240633  .00034955  00000+0  52667-3 0  9999
2 61753  97.2989  40.0569 0003770 302.4901  57.5989 15.54717972136953
HORS 4 (RS82S)          
1 61754U 24199V   26164.26463848  .00047673  00000+0  60395-3 0  9990
2 61754  97.2937  41.2048 0002963 284.7895  75.3034 15.59337972137031
ARCTICSAT 1 (RS74S)     
1 61762U 24199AD  26164.11788900  .03579472  24057-5  11681-2 0  9999
2 61762  97.2788  48.2183 0009656 221.8122 138.2434 16.25959635137473
SIT-2086                
1 61764U 24199AF  26164.26591868  .00036730  00000+0  59220-3 0  9992
2 61764  97.2946  40.5201 0004334 272.2605  87.8152 15.52830496133824
HYPERVIEW 1G (RS66S)    
1 61772U 24199AP  26164.25138581  .00136956  00000+0  91763-3 0  9998
2 61772  97.2884  43.7752 0002820 240.6111 119.4872 15.74851223134051
ALTAIR (RS65S)          
1 61779U 24199AW  26164.27084792  .00010658  00000+0  29639-3 0  9994
2 61779  97.3040  33.6483 0011472 327.0577  32.9952 15.36960112136518
ASRTU-1 (AO-123)        
1 61781U 24199AY  26164.25532494  .00007701  00000+0  22415-3 0  9992
2 61781  97.3011  32.9622 0012636 329.7335  30.3178 15.35622337133321
SAMSAT-IONOSPHERE (RS7*)
1 61784U 24199BB  26164.26871280  .00047064  00000+0  64311-3 0  9992
2 61784  97.2958  40.0655 0005904 297.2767  62.7887 15.57303354136954
RTU MIREA 1 (RS51S)     
1 61785U 24199BC  26164.23760495  .00054719  00000+0  65775-3 0  9995
2 61785  97.2945  40.8453 0005442 289.6521  70.4149 15.60679895133858
TEVEL2-4                
1 63213U 25052D   26164.26972619  .00018898  00000+0  56728-3 0  9994
2 63213  97.3917  60.6555 0004732 110.4316 249.7436 15.34482014 69510
TEVEL2-5                
1 63214U 25052E   26163.96369743  .00019112  00000+0  57700-3 0  9990
2 63214  97.3917  60.2979 0004664 112.6525 247.5211 15.34298068 69462
TEVEL2-6                
1 63215U 25052F   26164.23681016  .00018774  00000+0  56731-3 0  9998
2 63215  97.3921  60.5561 0004591 112.1174 248.0556 15.34273668 69504
TEVEL2-1                
1 63217U 25052H   26164.19922752  .00018012  00000+0  55363-3 0  9995
2 63217  97.3890  60.1475 0004530 121.4077 238.7609 15.33742375 69486
TEVEL2-3                
1 63218U 25052J   26164.25925316  .00018619  00000+0  57110-3 0  9997
2 63218  97.3894  60.2289 0004556 121.1878 238.9812 15.33799841 69498
TEVEL2-2                
1 63219U 25052K   26164.26480536  .00017385  00000+0  53430-3 0  9999
2 63219  97.3884  60.2162 0004633 121.5188 238.6507 15.33751578 69495
TEVEL2-9                
1 63237U 25052AD  26164.23717219  .00016597  00000+0  54230-3 0  9990
2 63237  97.3954  59.5715 0007453 141.5778 218.5996 15.31784932 69428
TEVEL2-7                
1 63238U 25052AE  26164.21198651  .00016192  00000+0  53402-3 0  9993
2 63238  97.3956  59.4641 0007517 142.1332 218.0439 15.31491052 69416
TEVEL2-8                
1 63239U 25052AF  26163.69748469  .00017638  00000+0  58194-3 0  9992
2 63239  97.3955  58.9279 0007531 144.4315 215.7430 15.31459087 69337
INNOSAT 16 (RS92S7)     
1 64878U 25155C   26164.26300717  .00005992  00000+0  23973-3 0  9997
2 64878  97.4556 131.4032 0010085 189.1313 170.9743 15.25417539 80073
GEOSCAN 6 (RS92S6)      
1 64879U 25155D   26164.25777655  .00010184  00000+0  35204-3 0  9995
2 64879  97.4547 132.7946 0007827 175.3612 184.7703 15.30081926 80163
GEOSCAN 1 (RS92S1)      
1 64880U 25155E   26164.26174618  .00011169  00000+0  37884-3 0  9998
2 64880  97.4544 132.9429 0007784 174.9146 185.2175 15.30671873 80175
239ALFEROV (RS61S)      
1 64881U 25155F   26164.23696902  .00013955  00000+0  44179-3 0  9991
2 64881  97.4544 133.4662 0007496 171.6262 188.5107 15.32840022 80205
GEOSCAN 2 (RS92S2)      
1 64890U 25155Q   26164.25612523  .00010847  00000+0  36497-3 0  9991
2 64890  97.4543 133.0883 0007627 161.4633 198.6887 15.30942474 80186
GEOSCAN 5 (RS92S5)      
1 64891U 25155R   26164.22681268  .00013842  00000+0  43405-3 0  9996
2 64891  97.4537 133.5920 0006195 174.9393 185.1913 15.33157365 80213
GEOSCAN 4 (RS92S4)      
1 64892U 25155S   26164.27666067  .00014281  00000+0  44555-3 0  9997
2 64892  97.4540 133.6895 0006244 174.9106 185.2200 15.33311064 80226
